TIANWANG 1C (TW-1C)     
1 40926U 15051B   17148.80169304  .00007230  00000-0  16905-3 0  9991
2 40926  97.2301 188.5150 0010203 232.3838 216.8832 15.42406817 93930
TIANWANG 1B (TW-1B)     
1 40927U 15051C   17148.86126193  .00008001  00000-0  19374-3 0  9997
2 40927  97.2393 188.6003 0009974 244.3406 222.4280 15.41314948 93894
TIANWANG 1A (TW-1A)     
1 40928U 15051D   17148.80985692  .00003757  00000-0  10942-3 0  9994
2 40928  97.2278 184.9749 0010791 267.7918 209.9644 15.35962936 93724
LAPAN-A2 (IO-86)        
1 40931U 15052B   17148.72348249  .00000170  00000-0 -65670-4 0  9997
2 40931   6.0016  11.4095 0013767 325.3583  34.6438 14.76527546 90087
LQSAT                   
1 40958U 15057A   17148.81971111 -.00000499  00000-0 -69819-4 0  9995
2 40958  97.9779 224.4776 0019568 126.4527 233.8469 14.72963055 88265
CHUBUSAT-2              
1 41338U 16012B   17148.65158674  .00000427  00000-0  26823-4 0  9990
2 41338  31.0029 236.3318 0013955 226.5847 133.3627 14.99731373 70053
CHUBUSAT-3              
1 41339U 16012C   17148.64902253  .00000714  00000-0  49228-4 0  9993
2 41339  31.0112 235.5232 0013948 232.8497 127.0845 14.99938318 70034
OUFTI-1                 
1 41458U 16025C   17148.93987077  .00001431  00000-0  80906-4 0  9993
2 41458  98.1892 185.4157 0174002 354.5992   5.3352 15.03107216 59696
E-ST@R-II               
1 41459U 16025D   17148.89229159  .00002143  00000-0  11887-3 0  9991
2 41459  98.1879 185.3158 0174762 355.1723   4.7810 15.02956147 59678
AAUSAT 4                
1 41460U 16025E   17148.83440085  .00003191  00000-0  17486-3 0  9995
2 41460  98.1793 185.3493 0167468 353.5709   6.3379 15.03814371 59680
NUSAT 1 (LO-87)         
1 41557U 16033B   17148.81372619  .00002243  00000-0  87268-4 0  9999
2 41557  97.4633 228.3308 0016028  78.1601 282.1434 15.26978494 55472
BEESAT-4                
1 41619U 16040W   17148.71437616  .00002621  00000-0  12225-3 0  9994
2 41619  97.4632 211.2890 0013536 131.5716 228.6682 15.20673467 39635
PRATHAM                 
1 41783U 16059A   17148.80334397  .00000091  00000-0  27132-4 0  9991
2 41783  98.1684 210.3762 0032811 219.7968 140.0827 14.62834395 35767
ALSAT 1N                
1 41789U 16059G   17148.87625998  .00000431  00000-0  91057-4 0  9999
2 41789  98.1682 210.9102 0027904 212.4915 147.4542 14.64044299 35789
NAYIF-1 (EO-88)         
1 42017U 17008BX  17148.92022402  .00003007  00000-0  13134-3 0  9997
2 42017  97.4959 210.4131 0004930 294.3620  65.7101 15.22897471 15555
